{"type": "FeatureCollection", "features": [ {"type": "Feature", "properties": {"norad_id": 34077, "name": "IRIDIUM 33 DEB", "group": "iridium-33-debris", "lat": -5.671411926035052, "lon": 55.71207306288477, "alt_km": 680.6237499129447, "timestamp": "2025-12-02T08:59:33.099194+00:00", "meta": {"OBJECT_NAME": "IRIDIUM 33 DEB", "OBJECT_ID": "1997-051CL", "EPOCH": "2025-12-02T04:23:57.475968", "MEAN_MOTION": 14.64546723, "ECCENTRICITY": 0.0011001, "INCLINATION": 86.3871, "RA_OF_ASC_NODE": 56.1558, "ARG_OF_PERICENTER": 72.538, "MEAN_ANOMALY": 353.6288, "EPHEMERIS_TYPE": 0, "CLASSIFICATION_TYPE": "U", "NORAD_CAT_ID": 34077, "ELEMENT_SET_NO": 999, "REV_AT_EPOCH": 88178, "BSTAR": 0.0019988, "MEAN_MOTION_DOT": 0.00010637, "MEAN_MOTION_DDOT": 0}, "tle": {"line1": "1 34077U 97051CL  25336.18330412  .00010637  00000+0  19988-2 0  9997", "line2": "2 34077  86.3871  56.1558 0011001  72.5380 353.6288 14.64546723881783"}}, "geometry": {"type": "Point", "coordinates": [55.71207306288477, -5.671411926035052]}}, {"type": "Feature", "properties": {"norad_id": 34079, "name": "IRIDIUM 33 DEB", "group": "iridium-33-debris", "lat": 12.816044648702222, "lon": 14.200385863194757, "alt_km": 616.5808309186596, "timestamp": "2025-12-02T08:59:33.099209+00:00", "meta": {"OBJECT_NAME": "IRIDIUM 33 DEB", "OBJECT_ID": "1997-051CN", "EPOCH": "2025-12-02T02:41:47.765760", "MEAN_MOTION": 14.83089059, "ECCENTRICITY": 0.0006819, "INCLINATION": 86.379, "RA_OF_ASC_NODE": 13.4941, "ARG_OF_PERICENTER": 39.8853, "MEAN_ANOMALY": 13.4166, "EPHEMERIS_TYPE": 0, "CLASSIFICATION_TYPE": "U", "NORAD_CAT_ID": 34079, "ELEMENT_SET_NO": 999, "REV_AT_EPOCH": 88820, "BSTAR": 0.0017615, "MEAN_MOTION_DOT": 0.00014386, "MEAN_MOTION_DDOT": 0}, "tle": {"line1": "1 34079U 97051CN  25336.11235840  .00014386  00000+0  17615-2 0  9991", "line2": "2 34079  86.3790  13.4941 0006819  39.8853  13.4166 14.83089059888204"}}, "geometry": {"type": "Point", "coordinates": [14.200385863194757, 12.816044648702222]}}, {"type": "Feature", "properties": {"norad_id": 34088, "name": "IRIDIUM 33 DEB", "group": "iridium-33-debris", "lat": 1.4163827278014058, "lon": -144.60573619732983, "alt_km": 596.3065032885397, "timestamp": "2025-12-02T08:59:33.099220+00:00", "meta": {"OBJECT_NAME": "IRIDIUM 33 DEB", "OBJECT_ID": "1997-051CX", "EPOCH": "2025-12-02T03:37:18.414912", "MEAN_MOTION": 14.90543646, "ECCENTRICITY": 0.0005151, "INCLINATION": 86.3865, "RA_OF_ASC_NODE": 35.5864, "ARG_OF_PERICENTER": 217.1518, "MEAN_ANOMALY": 201.3368, "EPHEMERIS_TYPE": 0, "CLASSIFICATION_TYPE": "U", "NORAD_CAT_ID": 34088, "ELEMENT_SET_NO": 999, "REV_AT_EPOCH": 88584, "BSTAR": 0.0030325, "MEAN_MOTION_DOT": 0.00029754, "MEAN_MOTION_DDOT": 0}, "tle": {"line1": "1 34088U 97051CX  25336.15090758  .00029754  00000+0  30325-2 0  9990", "line2": "2 34088  86.3865  35.5864 0005151 217.1518 201.3368 14.90543646885847"}}, "geometry": {"type": "Point", "coordinates": [-144.60573619732983, 1.4163827278014058]}}, {"type": "Feature", "properties": {"norad_id": 34091, "name": "IRIDIUM 33 DEB", "group": "iridium-33-debris", "lat": 9.069344634920597, "lon": 72.16039486805943, "alt_km": 611.5706843262769, "timestamp": "2025-12-02T08:59:33.099231+00:00", "meta": {"OBJECT_NAME": "IRIDIUM 33 DEB", "OBJECT_ID": "1997-051DA", "EPOCH": "2025-12-01T18:21:08.453088", "MEAN_MOTION": 14.80452888, "ECCENTRICITY": 0.0032842, "INCLINATION": 86.342, "RA_OF_ASC_NODE": 71.854, "ARG_OF_PERICENTER": 332.8724, "MEAN_ANOMALY": 27.078, "EPHEMERIS_TYPE": 0, "CLASSIFICATION_TYPE": "U", "NORAD_CAT_ID": 34091, "ELEMENT_SET_NO": 999, "REV_AT_EPOCH": 87704, "BSTAR": 0.0048913, "MEAN_MOTION_DOT": 0.0003792, "MEAN_MOTION_DDOT": 0}, "tle": {"line1": "1 34091U 97051DA  25335.76468117  .00037920  00000+0  48913-2 0  9994", "line2": "2 34091  86.3420  71.8540 0032842 332.8724  27.0780 14.80452888877043"}}, "geometry": {"type": "Point", "coordinates": [72.16039486805943, 9.069344634920597]}}, {"type": "Feature", "properties": {"norad_id": 34097, "name": "IRIDIUM 33 DEB", "group": "iridium-33-debris", "lat": -9.465076285926374, "lon": -173.38268232530655, "alt_km": 834.0318579935702, "timestamp": "2025-12-02T08:59:33.099241+00:00", "meta": {"OBJECT_NAME": "IRIDIUM 33 DEB", "OBJECT_ID": "1997-051DG", "EPOCH": "2025-12-02T03:05:43.363968", "MEAN_MOTION": 14.34646707, "ECCENTRICITY": 0.0083801, "INCLINATION": 86.2012, "RA_OF_ASC_NODE": 6.091, "ARG_OF_PERICENTER": 36.59, "MEAN_ANOMALY": 324.0979, "EPHEMERIS_TYPE": 0, "CLASSIFICATION_TYPE": "U", "NORAD_CAT_ID": 34097, "ELEMENT_SET_NO": 999, "REV_AT_EPOCH": 86967, "BSTAR": 0.0014393, "MEAN_MOTION_DOT": 4.252e-05, "MEAN_MOTION_DDOT": 0}, "tle": {"line1": "1 34097U 97051DG  25336.12897412  .00004252  00000+0  14393-2 0  9992", "line2": "2 34097  86.2012   6.0910 0083801  36.5900 324.0979 14.34646707869675"}}, "geometry": {"type": "Point", "coordinates": [-173.38268232530655, -9.465076285926374]}}, {"type": "Feature", "properties": {"norad_id": 34145, "name": "IRIDIUM 33 DEB", "group": "iridium-33-debris", "lat": 1.2755216884397125, "lon": 157.05902394472866, "alt_km": 729.7804173397808, "timestamp": "2025-12-02T08:59:33.099268+00:00", "meta": {"OBJECT_NAME": "IRIDIUM 33 DEB", "OBJECT_ID": "1997-051DY", "EPOCH": "2025-12-01T23:50:43.692864", "MEAN_MOTION": 14.42169477, "ECCENTRICITY": 0.0055179, "INCLINATION": 86.2117, "RA_OF_ASC_NODE": 337.3132, "ARG_OF_PERICENTER": 128.0114, "MEAN_ANOMALY": 232.6087, "EPHEMERIS_TYPE": 0, "CLASSIFICATION_TYPE": "U", "NORAD_CAT_ID": 34145, "ELEMENT_SET_NO": 999, "REV_AT_EPOCH": 87483, "BSTAR": 0.0011324, "MEAN_MOTION_DOT": 3.815e-05, "MEAN_MOTION_DDOT": 0}, "tle": {"line1": "1 34145U 97051DY  25335.99356126  .00003815  00000+0  11324-2 0  9997", "line2": "2 34145  86.2117 337.3132 0055179 128.0114 232.6087 14.42169477874833"}}, "geometry": {"type": "Point", "coordinates": [157.05902394472866, 1.2755216884397125]}}, {"type": "Feature", "properties": {"norad_id": 34146, "name": "IRIDIUM 33 DEB", "group": "iridium-33-debris", "lat": -75.52713199577174, "lon": -20.20366845102636, "alt_km": 720.4783722002203, "timestamp": "2025-12-02T08:59:33.099281+00:00", "meta": {"OBJECT_NAME": "IRIDIUM 33 DEB", "OBJECT_ID": "1997-051DZ", "EPOCH": "2025-12-02T01:19:27.768000", "MEAN_MOTION": 14.4892623, "ECCENTRICITY": 0.0024968, "INCLINATION": 86.284, "RA_OF_ASC_NODE": 354.5208, "ARG_OF_PERICENTER": 260.0477, "MEAN_ANOMALY": 158.3382, "EPHEMERIS_TYPE": 0, "CLASSIFICATION_TYPE": "U", "NORAD_CAT_ID": 34146, "ELEMENT_SET_NO": 999, "REV_AT_EPOCH": 87952, "BSTAR": 0.0011057, "MEAN_MOTION_DOT": 4.221e-05, "MEAN_MOTION_DDOT": 0}, "tle": {"line1": "1 34146U 97051DZ  25336.05518250  .00004221  00000+0  11057-2 0  9999", "line2": "2 34146  86.2840 354.5208 0024968 260.0477 158.3382 14.48926230879520"}}, "geometry": {"type": "Point", "coordinates": [-20.20366845102636, -75.52713199577174]}}, {"type": "Feature", "properties": {"norad_id": 34159, "name": "IRIDIUM 33 DEB", "group": "iridium-33-debris", "lat": 30.778973087639862, "lon": 54.83795583641341, "alt_km": 754.4924883406884, "timestamp": "2025-12-02T08:59:33.099292+00:00", "meta": {"OBJECT_NAME": "IRIDIUM 33 DEB", "OBJECT_ID": "1997-051EN", "EPOCH": "2025-12-01T14:29:07.196928", "MEAN_MOTION": 14.38447041, "ECCENTRICITY": 0.00266116, "INCLINATION": 86.3516, "RA_OF_ASC_NODE": 52.9886, "ARG_OF_PERICENTER": 326.7615, "MEAN_ANOMALY": 33.191, "EPHEMERIS_TYPE": 0, "CLASSIFICATION_TYPE": "U", "NORAD_CAT_ID": 34159, "ELEMENT_SET_NO": 999, "REV_AT_EPOCH": 87799, "BSTAR": 0.00044184185, "MEAN_MOTION_DOT": 1.372e-05, "MEAN_MOTION_DDOT": 0}, "tle": {"line1": "1 34159U 97051EN  25335.60355552  .00001372  00000+0  44184-3 0  9999", "line2": "2 34159  86.3516  52.9886 0026611 326.7615  33.1910 14.38447041877990"}}, "geometry": {"type": "Point", "coordinates": [54.83795583641341, 30.778973087639862]}}, {"type": "Feature", "properties": {"norad_id": 34350, "name": "IRIDIUM 33 DEB", "group": "iridium-33-debris", "lat": 17.339078879999793, "lon": -173.84395608795955, "alt_km": 726.0507723662695, "timestamp": "2025-12-02T08:59:33.099308+00:00", "meta": {"OBJECT_NAME": "IRIDIUM 33 DEB", "OBJECT_ID": "1997-051ES", "EPOCH": "2025-12-02T01:52:09.567264", "MEAN_MOTION": 14.45347269, "ECCENTRICITY": 0.0021718, "INCLINATION": 86.3283, "RA_OF_ASC_NODE": 7.4335, "ARG_OF_PERICENTER": 168.9655, "MEAN_ANOMALY": 250.2306, "EPHEMERIS_TYPE": 0, "CLASSIFICATION_TYPE": "U", "NORAD_CAT_ID": 34350, "ELEMENT_SET_NO": 999, "REV_AT_EPOCH": 88139, "BSTAR": 0.00036673, "MEAN_MOTION_DOT": 1.312e-05, "MEAN_MOTION_DDOT": 0}, "tle": {"line1": "1 34350U 97051ES  25336.07788851  .00001312  00000+0  36673-3 0  9994", "line2": "2 34350  86.3283   7.4335 0021718 168.9655 250.2306 14.45347269881390"}}, "geometry": {"type": "Point", "coordinates": [-173.84395608795955, 17.339078879999793]}}, {"type": "Feature", "properties": {"norad_id": 34366, "name": "IRIDIUM 33 DEB", "group": "iridium-33-debris", "lat": 10.339584887657372, "lon": -126.84359452909467, "alt_km": 699.3180048485274, "timestamp": "2025-12-02T08:59:33.099319+00:00", "meta": {"OBJECT_NAME": "IRIDIUM 33 DEB", "OBJECT_ID": "1997-051FJ", "EPOCH": "2025-12-01T17:56:27.538080", "MEAN_MOTION": 14.53886332, "ECCENTRICITY": 0.0021585, "INCLINATION": 86.3708, "RA_OF_ASC_NODE": 54.0924, "ARG_OF_PERICENTER": 175.1506, "MEAN_ANOMALY": 314.0066, "EPHEMERIS_TYPE": 0, "CLASSIFICATION_TYPE": "U", "NORAD_CAT_ID": 34366, "ELEMENT_SET_NO": 999, "REV_AT_EPOCH": 88022, "BSTAR": 0.0012466, "MEAN_MOTION_DOT": 5.277e-05, "MEAN_MOTION_DDOT": 0}, "tle": {"line1": "1 34366U 97051FJ  25335.74754095  .00005277  00000+0  12466-2 0  9994", "line2": "2 34366  86.3708  54.0924 0021585 175.1506 314.0066 14.53886332880229"}}, "geometry": {"type": "Point", "coordinates": [-126.84359452909467, 10.339584887657372]}}]}